OBJECT_NAME,OBJECT_ID,EPOCH,MEAN_MOTION,ECCENTRICITY,INCLINATION,RA_OF_ASC_NODE,ARG_OF_PERICENTER,MEAN_ANOMALY,EPHEMERIS_TYPE,CLASSIFICATION_TYPE,NORAD_CAT_ID,ELEMENT_SET_NO,REV_AT_EPOCH,BSTAR,MEAN_MOTION_DOT,MEAN_MOTION_DDOT
ASTRA 1N,2011-041A,2026-06-16T02:50:23.170272,1.00270923,.00060153,0.0950,45.4404,49.7303,231.0140,0,U,37775,999,4451,0,.119E-5,0
BSAT-3C (JCSAT-110R),2011-041B,2026-06-16T15:42:23.239296,1.00270474,.00000915,0.0194,20.5408,158.5311,71.4016,0,U,37776,999,5046,0,-.353E-5,0
PAKSAT-1R,2011-042A,2026-06-16T13:11:43.248768,1.00265817,.00032419,0.6879,84.5987,336.3115,79.8766,0,U,37779,999,5447,0,.152E-5,0
SES-2,2011-049A,2026-06-16T12:36:04.180896,1.00270380,.00026298,0.0621,99.9562,344.3204,282.5310,0,U,37809,999,5395,0,-.197E-5,0
ARABSAT-5C,2011-049B,2026-06-16T13:06:36.240192,1.00271454,.00034224,0.0515,16.1153,87.0433,18.2929,0,U,37810,999,5403,0,.121E-5,0
EUTELSAT 7 WEST A,2011-051A,2026-06-16T09:33:31.010112,1.00271261,.00040357,0.0639,13.4274,83.1827,304.1138,0,U,37816,999,5386,0,-.62E-6,0
QUETZSAT 1,2011-054A,2026-06-16T12:38:56.406336,1.00270375,.00025116,0.0231,40.5428,47.5104,289.4784,0,U,37826,999,4986,0,-.243E-5,0
INTELSAT 18 (IS-18),2011-056A,2026-06-16T05:18:54.418752,1.00271347,.00015508,0.0151,317.1328,125.8808,81.2040,0,U,37834,999,5380,0,.52E-6,0
EUTELSAT 16A,2011-057A,2026-06-16T01:06:49.269312,1.00273863,.00059887,0.0460,17.6013,70.5225,208.9086,0,U,37836,999,732,0,.104E-5,0
VIASAT-1,2011-059A,2026-06-15T00:23:38.718240,1.00271822,.00020218,0.0175,336.5077,105.2509,72.3583,0,U,37843,999,4730,0,-.19E-6,0
ASIASAT 7,2011-069A,2026-06-16T15:13:40.359360,1.00271979,.00012004,0.0317,78.2117,339.1320,181.4934,0,U,37933,999,4485,0,-.336E-5,0
BEIDOU-2 IGSO-5,2011-073A,2026-06-16T15:18:07.247232,1.00272874,.01139458,47.6789,271.5524,221.6858,92.9362,0,U,37948,999,5312,0,-.172E-5,0
LUCH-5A,2011-074B,2026-06-16T12:05:47.828256,1.00270120,.00022008,8.7527,73.8173,23.0757,156.2756,0,U,37951,999,5304,0,-.57E-6,0
NIGCOMSAT 1R,2011-077A,2026-06-16T13:12:58.129056,1.00269250,.00027015,0.0439,119.1902,229.4811,156.8787,0,U,38014,999,5295,0,.143E-5,0
WGS F4 (USA 233),2012-003A,2026-06-15T22:02:06.209088,1.00268820,.00008335,0.0232,18.2862,269.0983,35.7464,0,U,38070,999,4413,0,0,0
SES-4,2012-007A,2026-06-15T04:24:06.471072,1.00270340,.00026425,0.0226,29.0397,70.8671,207.5944,0,U,38087,999,5220,0,-.164E-5,0
BEIDOU-2 G5,2012-008A,2026-06-16T11:34:54.448032,1.00271594,.0009105,3.5715,69.6964,272.5850,154.8484,0,U,38091,999,5236,0,.54E-6,0
MUOS-1,2012-009A,2026-06-16T14:14:58.615872,1.00270133,.00586035,5.4748,47.1548,1.7992,329.6475,0,U,38093,999,5243,0,-.132E-5,0
INTELSAT 22 (IS-22),2012-011A,2026-06-16T13:21:27.315360,1.00272410,.00015823,0.0154,99.0890,2.3017,75.8859,0,U,38098,999,718,0,-.6E-6,0
APSTAR-7,2012-013A,2026-06-16T15:05:18.661344,1.00271575,.00025607,0.0206,24.4524,69.9241,113.3403,0,U,38107,999,5180,0,-.103E-5,0
YAHSAT 1B,2012-016A,2026-06-16T13:14:27.985056,1.00269264,.00025281,0.0923,89.7259,21.6946,39.5996,0,U,38245,999,4560,0,.125E-5,0
AEHF-2 (USA 235),2012-019A,2026-06-16T09:30:53.761248,1.00269828,.00023227,6.6489,57.4939,19.5331,313.8010,0,U,38254,999,697,0,-.141E-5,0
JCSAT-13,2012-023A,2026-06-16T14:22:54.928704,1.00271299,.00029622,0.0137,37.7003,72.7067,134.1856,0,U,38331,999,5153,0,-.358E-5,0
VINASAT-2,2012-023B,2026-06-16T13:38:29.993280,1.00270759,.0002106,0.0196,24.6818,70.1937,146.4375,0,U,38332,999,4665,0,-.331E-5,0
NIMIQ 6,2012-026A,2026-06-16T14:17:35.864736,1.00270201,.00024499,0.0153,309.6169,135.0630,303.4732,0,U,38342,999,5040,0,-.175E-5,0
ZHONGXING-2A,2012-028A,2026-06-16T15:11:33.061920,1.00270265,.0003766,1.4524,83.8824,46.1050,101.0421,0,U,38352,999,5129,0,-.295E-5,0
INTELSAT 19 (IS-19),2012-030A,2026-06-16T13:11:38.722272,1.00271008,.00028369,0.0157,2.0137,91.9084,174.7998,0,U,38356,999,5044,0,-.58E-6,0
ECHOSTAR 17,2012-035A,2026-06-15T10:50:23.276256,1.00271238,.00021463,0.0247,12.0514,73.4158,233.7706,0,U,38551,999,5104,0,0,0
METEOSAT-10 (MSG-3),2012-035B,2026-06-15T21:37:03.141984,1.00276584,.00014525,4.6688,61.0268,328.0735,199.6782,0,U,38552,999,5084,0,-.6E-7,0
SES-5,2012-036A,2026-06-16T13:02:21.647040,1.00272264,.00018069,0.0485,314.0298,132.6034,18.7495,0,U,38652,999,4445,0,.32E-6,0
INTELSAT 20 (IS-20),2012-043A,2026-06-16T13:20:27.410784,1.00270557,.0001738,0.0080,87.9788,89.7250,355.7421,0,U,38740,999,5074,0,-.26E-6,0
HYLAS 2,2012-043B,2026-06-16T12:39:48.821760,1.00269616,.00024355,2.4261,81.0750,27.3686,273.7315,0,U,38741,999,5076,0,-.26E-5,0
