ASTRA 1N                
1 37775U 11041A   26167.11832373  .00000119  00000+0  00000+0 0  9995
2 37775   0.0950  45.4404 0006015  49.7303 231.0140  1.00270923 44513
BSAT-3C (JCSAT-110R)    
1 37776U 11041B   26167.65443564 -.00000353  00000+0  00000+0 0  9996
2 37776   0.0194  20.5408 0000091 158.5311  71.4016  1.00270474 50468
PAKSAT-1R               
1 37779U 11042A   26167.54980612  .00000152  00000+0  00000+0 0  9994
2 37779   0.6879  84.5987 0003241 336.3115  79.8766  1.00265817 54471
SES-2                   
1 37809U 11049A   26167.52504839 -.00000197  00000+0  00000+0 0  9996
2 37809   0.0621  99.9562 0002629 344.3204 282.5310  1.00270380 53951
ARABSAT-5C              
1 37810U 11049B   26167.54625278  .00000121  00000+0  00000+0 0  9997
2 37810   0.0515  16.1153 0003422  87.0433  18.2929  1.00271454 54032
EUTELSAT 7 WEST A       
1 37816U 11051A   26167.39827558 -.00000062  00000+0  00000+0 0  9999
2 37816   0.0639  13.4274 0004035  83.1827 304.1138  1.00271261 53869
QUETZSAT 1              
1 37826U 11054A   26167.52704174 -.00000243  00000+0  00000+0 0  9997
2 37826   0.0231  40.5428 0002511  47.5104 289.4784  1.00270375 49861
INTELSAT 18 (IS-18)     
1 37834U 11056A   26167.22146318  .00000052  00000+0  00000+0 0  9992
2 37834   0.0151 317.1328 0001550 125.8808  81.2040  1.00271347 53808
EUTELSAT 16A            
1 37836U 11057A   26167.04640358  .00000104  00000+0  00000+0 0  9996
2 37836   0.0460  17.6013 0005988  70.5225 208.9086  1.00273863  7323
VIASAT-1                
1 37843U 11059A   26166.01642035 -.00000019  00000+0  00000+0 0  9992
2 37843   0.0175 336.5077 0002021 105.2509  72.3583  1.00271822 47303
ASIASAT 7               
1 37933U 11069A   26167.63449490 -.00000336  00000+0  00000+0 0  9994
2 37933   0.0317  78.2117 0001200 339.1320 181.4934  1.00271979 44855
BEIDOU-2 IGSO-5         
1 37948U 11073A   26167.63758388 -.00000172  00000+0  00000+0 0  9992
2 37948  47.6789 271.5524 0113945 221.6858  92.9362  1.00272874 53128
LUCH-5A                 
1 37951U 11074B   26167.50402579 -.00000057  00000+0  00000+0 0  9993
2 37951   8.7527  73.8173 0002200  23.0757 156.2756  1.00270120 53040
NIGCOMSAT 1R            
1 38014U 11077A   26167.55067279  .00000143  00000+0  00000+0 0  9991
2 38014   0.0439 119.1902 0002701 229.4811 156.8787  1.00269250 52952
WGS F4 (USA 233)        
1 38070U 12003A   26166.91812742  .00000000  00000+0  00000+0 0  9997
2 38070   0.0232  18.2862 0000833 269.0983  35.7464  1.00268820 44133
SES-4                   
1 38087U 12007A   26166.18340823 -.00000164  00000+0  00000+0 0  9996
2 38087   0.0226  29.0397 0002642  70.8671 207.5944  1.00270340 52208
BEIDOU-2 G5             
1 38091U 12008A   26167.48257463  .00000054  00000+0  00000+0 0  9990
2 38091   3.5715  69.6964 0009105 272.5850 154.8484  1.00271594 52367
MUOS-1                  
1 38093U 12009A   26167.59373398 -.00000132  00000+0  00000+0 0  9999
2 38093   5.4748  47.1548 0058603   1.7992 329.6475  1.00270133 52439
INTELSAT 22 (IS-22)     
1 38098U 12011A   26167.55656615 -.00000060  00000+0  00000+0 0  9999
2 38098   0.0154  99.0890 0001582   2.3017  75.8859  1.00272410  7189
APSTAR-7                
1 38107U 12013A   26167.62868821 -.00000103  00000+0  00000+0 0  9992
2 38107   0.0206  24.4524 0002560  69.9241 113.3403  1.00271575 51801
YAHSAT 1B               
1 38245U 12016A   26167.55171279  .00000125  00000+0  00000+0 0  9997
2 38245   0.0923  89.7259 0002528  21.6946  39.5996  1.00269264 45609
AEHF-2 (USA 235)        
1 38254U 12019A   26167.39645557 -.00000141  00000+0  00000+0 0  9996
2 38254   6.6489  57.4939 0002322  19.5331 313.8010  1.00269828  6979
JCSAT-13                
1 38331U 12023A   26167.59924686 -.00000358  00000+0  00000+0 0  9992
2 38331   0.0137  37.7003 0002962  72.7067 134.1856  1.00271299 51532
VINASAT-2               
1 38332U 12023B   26167.56840270 -.00000331  00000+0  00000+0 0  9997
2 38332   0.0196  24.6818 0002106  70.1937 146.4375  1.00270759 46654
NIMIQ 6                 
1 38342U 12026A   26167.59555399 -.00000175  00000+0  00000+0 0  9995
2 38342   0.0153 309.6169 0002449 135.0630 303.4732  1.00270201 50406
ZHONGXING-2A            
1 38352U 12028A   26167.63302155 -.00000295  00000+0  00000+0 0  9996
2 38352   1.4524  83.8824 0003766  46.1050 101.0421  1.00270265 51299
INTELSAT 19 (IS-19)     
1 38356U 12030A   26167.54975373 -.00000058  00000+0  00000+0 0  9998
2 38356   0.0157   2.0137 0002836  91.9084 174.7998  1.00271008 50440
ECHOSTAR 17             
1 38551U 12035A   26166.45165829  .00000000  00000+0  00000+0 0  9992
2 38551   0.0247  12.0514 0002146  73.4158 233.7706  1.00271238 51043
METEOSAT-10 (MSG-3)     
1 38552U 12035B   26166.90073081 -.00000006  00000+0  00000+0 0  9998
2 38552   4.6688  61.0268 0001452 328.0735 199.6782  1.00276584 50842
SES-5                   
1 38652U 12036A   26167.54330610  .00000032  00000+0  00000+0 0  9993
2 38652   0.0485 314.0298 0001806 132.6034  18.7495  1.00272264 44459
INTELSAT 20 (IS-20)     
1 38740U 12043A   26167.55587281 -.00000026  00000+0  00000+0 0  9992
2 38740   0.0080  87.9788 0001738  89.7250 355.7421  1.00270557 50749
HYLAS 2                 
1 38741U 12043B   26167.52764840 -.00000260  00000+0  00000+0 0  9998
2 38741   2.4261  81.0750 0002435  27.3686 273.7315  1.00269616 50764
